{"type":"Topology","objects":{"collection":{"type":"GeometryCollection","geometries":[{"type":"MultiPolygon","arcs":[[[0]],[[1]],[[2]],[[3]],[[4]],[[5]],[[6]],[[7]],[[8]],[[9]],[[10]],[[11]],[[12]],[[13]],[[14]],[[15]],[[16]],[[17]],[[18]],[[19]],[[20]],[[21]],[[22]],[[23]],[[24]],[[25]],[[26]],[[27]],[[28]],[[29]],[[30]],[[31]],[[32]],[[33]],[[34]]],"id":"31-01","properties":{"provinsi":"Jakarta","kabkot":"Kepulauan Seribu"}},{"type":"Polygon","arcs":[[35,36,37,38]],"id":"31-71","properties":{"provinsi":"Jakarta","kabkot":"Jakarta Selatan"}},{"type":"Polygon","arcs":[[39,-36,40,41]],"id":"31-72","properties":{"provinsi":"Jakarta","kabkot":"Jakarta Timur"}},{"type":"Polygon","arcs":[[-41,-39,42,43]],"id":"31-73","properties":{"provinsi":"Jakarta","kabkot":"Jakarta Pusat"}},{"type":"Polygon","arcs":[[-43,-38,44,45]],"id":"31-74","properties":{"provinsi":"Jakarta","kabkot":"Jakarta Barat"}},{"type":"Polygon","arcs":[[-42,-44,-46,46]],"id":"31-75","properties":{"provinsi":"Jakarta","kabkot":"Jakarta Utara"}}]}},"arcs":[[[106.73551056226611,-6.034856838423592],[106.73337217313357,-6.034003356093913],[106.73428361768188,-6.032037760425561],[106.73659728461216,-6.0329688320579375],[106.73551056226611,-6.034856838423592]],[[106.70630928116111,-5.9745958133280475],[106.71090155946214,-5.9763027779874065],[106.71044583718799,-5.978449415362054],[106.7086229480914,-5.980337421727709],[106.70532772549372,-5.979225308389036],[106.70241811405108,-5.97614759938201],[106.70630928116111,-5.9745958133280475]],[[106.69193650174569,-5.970819800596739],[106.69446050203328,-5.9712594733120286],[106.69530183546247,-5.972630217659695],[106.69537194658157,-5.976483819693702],[106.69449555759283,-5.978190784353061],[106.69165605726928,-5.977337302023382],[106.6901136126491,-5.975888968373017],[106.68895677918395,-5.971673282926418],[106.69193650174569,-5.970819800596739]],[[106.84327135232228,-5.954577773231931],[106.84670679715816,-5.955767475873302],[106.84611085264581,-5.960552149539687],[106.84225474109533,-5.957991702550649],[106.84113296318974,-5.956026106882296],[106.84327135232228,-5.954577773231931]],[[106.52219748240545,-5.959440036201014],[106.51939303764145,-5.960138339925297],[106.51967348211785,-5.954913993543623],[106.52258309356048,-5.95380188020495],[106.52219748240545,-5.959440036201014]],[[106.63272766166604,-5.945577414118949],[106.6282756056032,-5.944206669771281],[106.62834571672231,-5.942422115809225],[106.63139555040314,-5.941982443093935],[106.63402471736939,-5.9434307767443],[106.63272766166604,-5.945577414118949]],[[106.59265915710058,-5.934611459337614],[106.59392115724438,-5.934714911741211],[106.59746176875892,-5.937197769427551],[106.59339532385113,-5.938904734086909],[106.59139715695679,-5.934973542750205],[106.59265915710058,-5.934611459337614]],[[106.58452626728503,-5.92563696332553],[106.58708532313217,-5.927266338682191],[106.58550782295242,-5.929826785671229],[106.58165171140195,-5.927343927984889],[106.58137126692554,-5.925455921619235],[106.58452626728503,-5.92563696332553]],[[106.60678654759917,-5.8586256688952485],[106.60296549160823,-5.859556740527626],[106.60240460265544,-5.858108406877261],[106.60566476969358,-5.856660073226896],[106.60678654759917,-5.8586256688952485]],[[106.6298881613425,-5.853815132127965],[106.62312243834938,-5.856556620823299],[106.61607627087987,-5.8603326335546075],[106.61243049268668,-5.862893080543645],[106.61505965965293,-5.856401442217902],[106.6203179935854,-5.855444507484625],[106.62175527152694,-5.854513435852248],[106.6298881613425,-5.853815132127965]],[[106.55195965246324,-5.819856880647085],[106.55746337531257,-5.820451731967771],[106.55686743080022,-5.823012178956809],[106.55409804159578,-5.8229345896541105],[106.55195965246324,-5.819856880647085]],[[106.49127847888249,-5.795804196810666],[106.49692242397002,-5.795286934792679],[106.50354792472494,-5.800511281174352],[106.48906997863085,-5.796218006425056],[106.48412714473433,-5.795881786113364],[106.48132269997035,-5.794847262077389],[106.48184853336359,-5.792881666409037],[106.49127847888249,-5.795804196810666]],[[106.61243049268668,-5.749328204494488],[106.61148399257884,-5.748810942476501],[106.61428843734282,-5.741957220738167],[106.61614638199897,-5.742733113765148],[106.61418327066418,-5.747776418440526],[106.61243049268668,-5.749328204494488]],[[106.60422749175203,-5.743146923379538],[106.60107249139254,-5.738879511731141],[106.60208910261949,-5.73725013637448],[106.60422749175203,-5.743146923379538]],[[106.53772709528602,-5.699334830455996],[106.54316070701624,-5.699412419758694],[106.54203892911065,-5.701378015427046],[106.53485253940293,-5.700964205812657],[106.53446692824788,-5.6991537887497],[106.53772709528602,-5.699334830455996]],[[106.57271254371673,-5.652341576121831],[106.56668298747417,-5.656608987770228],[106.56443943166298,-5.655677916137851],[106.56752432090336,-5.653272647754209],[106.5698730433932,-5.652341576121831],[106.57271254371673,-5.652341576121831]],[[106.56464976502028,-5.6440395207331315],[106.55784898646762,-5.6464447891167735],[106.55788404202717,-5.644634372053817],[106.56345787599558,-5.64284981809176],[106.56464976502028,-5.6440395207331315]],[[106.55034709672395,-5.620167878603008],[106.55055743008126,-5.616728086183391],[106.55311648592838,-5.614348680900648],[106.55483420834632,-5.613831418882661],[106.55623643072832,-5.616909127889687],[106.55118843015315,-5.618797134255341],[106.55034709672395,-5.620167878603008]],[[106.57464059949197,-5.614167639194353],[106.57285276595493,-5.6136503771763655],[106.57372915494368,-5.610391626463044],[106.58052993349635,-5.609460554830666],[106.57884726663795,-5.611684781508012],[106.57464059949197,-5.614167639194353]],[[106.59038054572984,-5.587037246350908],[106.58820710103775,-5.586002722314933],[106.59164254587364,-5.583597453931291],[106.59248387930283,-5.584968198278958],[106.59038054572984,-5.587037246350908]],[[106.54873454098465,-5.582925013307907],[106.54715704080492,-5.580105935309875],[106.54985631889025,-5.576924773899252],[106.550031596688,-5.5818128999692345],[106.54873454098465,-5.582925013307907]],[[106.5408820956455,-5.574183285203919],[106.54112748456235,-5.570846945187899],[106.54326587369489,-5.572140100232868],[106.5408820956455,-5.574183285203919]],[[106.52759603857612,-5.5702520938672135],[106.52503698272898,-5.567691646878175],[106.52580820503907,-5.566838164548496],[106.52931376099406,-5.567433015869182],[106.52759603857612,-5.5702520938672135]],[[106.54582492954202,-5.551604798118764],[106.54344115149263,-5.554604917823092],[106.54070681784775,-5.554423876116796],[106.54140792903874,-5.551604798118764],[106.54582492954202,-5.551604798118764]],[[106.53604442842762,-5.5352593183503584],[106.53208315019849,-5.537302503321409],[106.53127687232885,-5.5360093482764405],[106.53565881727258,-5.534043752608088],[106.53604442842762,-5.5352593183503584]],[[106.54445776271957,-5.528069376300333],[106.54442270716002,-5.529440120647999],[106.5393396510253,-5.5307074125920686],[106.54105737344325,-5.527888334594037],[106.54445776271957,-5.528069376300333]],[[106.5381477620006,-5.510508330789657],[106.53818281756016,-5.512396337155311],[106.53292448362768,-5.515396456859638],[106.53331009478273,-5.5121377061463175],[106.53492265052203,-5.511025592807644],[106.5381477620006,-5.510508330789657]],[[106.5490500410206,-5.499050977091233],[106.5505924856408,-5.499904459420913],[106.55714787527661,-5.499982048723611],[106.55672720856202,-5.501016572759585],[106.5496109299734,-5.502128686098259],[106.54372159596903,-5.504611543784598],[106.54288026253984,-5.504016692463913],[106.54557954062517,-5.500576900044297],[106.5490500410206,-5.499050977091233]],[[106.5800742112222,-5.491162731316924],[106.57863693328066,-5.493749041406861],[106.57607787743352,-5.492869695976283],[106.57751515537507,-5.491085142014225],[106.5800742112222,-5.491162731316924]],[[106.39417457892948,-5.479627788315803],[106.39210630091604,-5.480895080259872],[106.39056385629586,-5.478748442885223],[106.39196607867785,-5.477377698537556],[106.39470041232273,-5.477377698537556],[106.39417457892948,-5.479627788315803]],[[106.55676226412157,-5.460178736439472],[106.55844493097996,-5.460877040163755],[106.55700765303841,-5.463954749170781],[106.55462387498903,-5.465066862509454],[106.55297626369018,-5.463954749170781],[106.55346704152389,-5.460877040163755],[106.55676226412157,-5.460178736439472]],[[106.57267748815718,-5.455807872387478],[106.5698730433932,-5.458394182477415],[106.56689332083147,-5.459506295816088],[106.56654276523597,-5.4564285868090625],[106.570433932346,-5.454618169746106],[106.57267748815718,-5.455807872387478]],[[106.49201464563305,-5.4224444722272835],[106.49012164541735,-5.420815096870623],[106.49068253437015,-5.418151197477987],[106.49478403483748,-5.4183322391842825],[106.49439842368243,-5.420220245549937],[106.49201464563305,-5.4224444722272835]],[[106.47091119878405,-5.415409708782653],[106.470525587629,-5.412254410472929],[106.47297947679749,-5.412590630784622],[106.47091119878405,-5.415409708782653]],[[106.46333919792129,-5.202116715665505],[106.46169158662245,-5.2058927283968135],[106.45944803081126,-5.203590912416769],[106.46333919792129,-5.202116715665505]],[[106.84903100913517,-6.207567090582388],[106.85756145118265,-6.2122069781437546],[106.85626334043629,-6.216184024624927],[106.86219756099105,-6.217793781533973],[106.86535011566076,-6.2233805849241906],[106.86349567173741,-6.231334677886535],[106.86627733762245,-6.2341754253730866],[106.86377383832591,-6.237205556025408],[106.86201211659872,-6.2461065648166025],[106.86405200491441,-6.249326078634694],[106.85793233996732,-6.252640284035671],[106.86052856146003,-6.2576589379285785],[106.85941589510601,-6.262204133907061],[106.85533611847461,-6.266181180388234],[106.85385256333592,-6.271957366944221],[106.84903100913517,-6.276691946088474],[106.84745473180031,-6.283036282141772],[106.84801106497733,-6.287581478120255],[106.85385256333592,-6.290232842441036],[106.85070000866621,-6.295819645831254],[106.85468706310144,-6.303300280879173],[106.85811778435965,-6.305099420953989],[106.85561428506311,-6.3137163549965285],[106.85116361964704,-6.314757962408264],[106.83827523437968,-6.320723532130022],[106.84152051124556,-6.323658971199459],[106.8396660673222,-6.335211344311435],[106.84096417806855,-6.341934446696273]],[[106.84096417806855,-6.341934446696273],[106.83799706779116,-6.341176914033193],[106.83781162339884,-6.346669025840526],[106.83910973414518,-6.351877062899203],[106.83595717947547,-6.354528427219985],[106.82733401523184,-6.356895716792111],[106.82167796126558,-6.355570034631721],[106.81592918510316,-6.356043492546146],[106.81240574164876,-6.361630295936363],[106.80934590917522,-6.36418696867426],[106.80294807763961,-6.36342943601118],[106.79961007857756,-6.365512650834651],[106.79469580218066,-6.36494450133734],[106.79247046947262,-6.3595470811128925],[106.79395402461131,-6.351119530236123],[106.79256319166879,-6.3479947080009165],[106.79664296830019,-6.346479642674756],[106.79970280077373,-6.342123829862043],[106.79914646759673,-6.333980353733929],[106.80341168862046,-6.330003307252757],[106.80406074399363,-6.3253634196913895],[106.80702785427101,-6.322238597456183],[106.80767690964419,-6.31750401831193],[106.80535885473999,-6.315231420322689],[106.78004569518609,-6.316651794065965],[106.7768004183202,-6.315231420322689],[106.77336969706198,-6.309265850600931],[106.77503869659301,-6.303394972462058],[106.77225703070796,-6.299133851232231],[106.76762092089956,-6.295630262665484],[106.76687914333021,-6.2872974033716],[106.76066675618695,-6.284646039050818],[106.76224303352181,-6.277828245083095],[106.75714331273257,-6.277828245083095],[106.75667970175172,-6.274419348099233],[106.75157998096248,-6.274608731265003],[106.75028187021613,-6.271862675361336],[106.75417620245518,-6.2678856288801645],[106.75139453657015,-6.260783760163785],[106.75426892465136,-6.2575642463456935],[106.75306353610117,-6.24998891971489],[106.74805653750809,-6.250083611297775],[106.74666570456556,-6.247242863811223],[106.7486128706851,-6.240898527757925],[106.74703659335023,-6.236448023362327],[106.74388403868052,-6.236258640196557],[106.74434764966136,-6.229156771480179],[106.73730076275258,-6.223664659672846]],[[106.73730076275258,-6.223664659672846],[106.74165870597248,-6.223001818592651],[106.76011042300995,-6.2231912017584206],[106.7657664769762,-6.222338977512456],[106.76697186552639,-6.225179724999006],[106.77846941785123,-6.224800958667466],[106.77772764028188,-6.213532660304145],[106.78356913864047,-6.2122069781437546],[106.7831982498558,-6.206714866336422],[106.79237774727645,-6.207756473748158]],[[106.79237774727645,-6.207756473748158],[106.79682841269252,-6.218172547865513],[106.79580846853467,-6.229251463063064],[106.79988824516607,-6.228683313565754],[106.81861812879202,-6.214384884550111],[106.82177068346175,-6.208798081159893],[106.82269790542342,-6.20273781985525],[106.83688440143715,-6.205389184176031],[106.84606389885779,-6.208514006411238],[106.84903100913517,-6.207567090582388]],[[106.97188791905795,-6.154634495749645],[106.97096069709626,-6.162399205546219],[106.97179519686178,-6.180958755791688],[106.96956986415374,-6.194973110058676],[106.9670663648572,-6.199234231288504],[106.96623186509169,-6.206904249502192],[106.96289386602963,-6.211449445480675],[106.95899953379057,-6.21286981922395],[106.95575425692469,-6.219498230025904],[106.95083998052777,-6.219119463694364],[106.94861464781974,-6.222244285929571],[106.94546209315003,-6.236826789693868],[106.94351492703049,-6.238625929768684],[106.94388581581516,-6.252356209287016],[106.94082598334163,-6.253492508281637],[106.92942115321294,-6.253208433532982],[106.92209609971566,-6.253871274613177],[106.92061254457697,-6.25036768604643],[106.91625460135707,-6.252450900869901],[106.91569826818007,-6.258416470591659],[106.90994949201763,-6.257943012677234],[106.90438616024755,-6.262204133907061],[106.90522066001306,-6.270347610035175],[106.90865138127128,-6.271957366944221],[106.90892954785978,-6.285592954879669],[106.91041310299848,-6.287013328622945],[106.91050582519465,-6.294209888922208],[106.911803935941,-6.298092243820495],[106.91523465719922,-6.29705063640876],[106.91940715602678,-6.300743608141277],[106.92172521093099,-6.304910037788219],[106.92014893359612,-6.311633140173058],[106.922837877285,-6.3142845044938385],[106.91912898943828,-6.3251740365256195],[106.92098343336164,-6.330950223081608],[106.91949987822295,-6.338620241295296],[106.91644004574941,-6.3483734743324565],[106.91773815649576,-6.350172614407272],[106.9146783240222,-6.357653249455192],[106.91430743523753,-6.365512650834651],[106.9059624375824,-6.360967454856168],[106.90197538314717,-6.368826856235628],[106.89576299600391,-6.3707206878933285],[106.88380183269823,-6.366743641412157],[106.87146978060787,-6.3600205390273175],[106.87388055770823,-6.356327567294801],[106.87100616962702,-6.352729287145169],[106.86219756099105,-6.357369174706537],[106.86025039487151,-6.353770894556905],[106.85561428506311,-6.352350520813629],[106.8565415070248,-6.347142483754951],[106.85394528553209,-6.342976054108009],[106.84699112081948,-6.338052091797986],[106.84606389885779,-6.342029138279158],[106.84096417806855,-6.341934446696273]],[[106.84903100913517,-6.207567090582388],[106.85366711894358,-6.206525483170652],[106.85496522968994,-6.202359053523709],[106.85153450843171,-6.201317446111974],[106.8617339500102,-6.193836811064055],[106.86516467126843,-6.192605820486549],[106.87499322406225,-6.192321745737894],[106.87610589041627,-6.175656027150126],[106.87879483410515,-6.166470943610276]],[[106.87879483410515,-6.166470943610276],[106.89121960839168,-6.173288737578],[106.89641205137708,-6.178023316722252],[106.9016044943625,-6.1785914662195625],[106.9100422142138,-6.182473821117849],[106.92246698850033,-6.183136662198045],[106.92033437798847,-6.169785149011252],[106.92181793312716,-6.162588588711989],[106.93554081816004,-6.158516850647931],[106.94017692796845,-6.15529733682984],[106.94416398240368,-6.155013262081185],[106.94434942679601,-6.162967355043529],[106.95158175809712,-6.163346121375069],[106.95436342398217,-6.157569934819081],[106.9580723118289,-6.158990308562357],[106.95974131135992,-6.1556761031613805],[106.96289386602963,-6.1563389442415755],[106.97188791905795,-6.154634495749645]],[[106.79237774727645,-6.207756473748158],[106.79692113488869,-6.204536959930066],[106.80508068815149,-6.195635951138871],[106.80712057646718,-6.188912848754033],[106.81064401992157,-6.188723465588263],[106.80962407576372,-6.179348998882642],[106.80025913395075,-6.165997485695851],[106.79812652343888,-6.161357598134483],[106.80202085567794,-6.160221299139863],[106.80470979936682,-6.161831056048909],[106.82028712832306,-6.159558458059667],[106.82779762621267,-6.162115130797564],[106.82631407107398,-6.14705916911884],[106.8213070724809,-6.136832478167255]],[[106.8213070724809,-6.136832478167255],[106.83067201429388,-6.135317412841094],[106.8315065140594,-6.140809524648428],[106.83846067877201,-6.141851132060163],[106.8440240105421,-6.1449759542953695],[106.84124234465705,-6.151036215600013],[106.84356039956126,-6.153687579920794],[106.85663422922096,-6.151793748263093],[106.87703311237794,-6.16353550454084],[106.87879483410515,-6.166470943610276]],[[106.73730076275258,-6.223664659672846],[106.72700859897792,-6.224327500753041],[106.71764365716494,-6.224138117587271],[106.71755093496877,-6.219782304774559],[106.72014715646148,-6.209555613822974],[106.72367059991586,-6.208135240079698],[106.72404148870054,-6.191564213074814],[106.7169018795956,-6.193079278400975],[106.71708732398793,-6.186734942347677],[106.71013315927532,-6.181716288454769],[106.68945610952983,-6.173099354412229],[106.6892706651375,-6.161736364466023],[106.68787983219497,-6.160031915974092],[106.6875089434103,-6.147722010199036],[106.68621083266395,-6.143082122637669],[106.69168144223786,-6.136453711835715],[106.68713805462562,-6.128594310456256],[106.68973427611833,-6.1212083669912225],[106.68899249854898,-6.114201189857728],[106.69613210765394,-6.112970199280222],[106.69789382938113,-6.1108869844567515],[106.69344316396506,-6.10709932114135],[106.68917794294133,-6.10653117164404],[106.6875089434103,-6.096872630189765],[106.70215905040486,-6.096777938606879],[106.71096765904083,-6.095641639612259]],[[106.71096765904083,-6.095641639612259],[106.71449110249523,-6.0991452281790055],[106.7171800461841,-6.104637339986338],[106.72747220995876,-6.11761008684159],[106.73322098612118,-6.123196890231808],[106.74388403868052,-6.129446534702222],[106.75083820339313,-6.134465188595129],[106.76817725407658,-6.140714833065543],[106.77550230757386,-6.141661748894393],[106.77707858490871,-6.1441237300494045],[106.80053730053925,-6.141851132060163],[106.80016641175457,-6.135601487589749],[106.80313352203196,-6.1327607401031985],[106.81500196314147,-6.130204067365302],[106.81676368486868,-6.137021861333025],[106.8213070724809,-6.136832478167255]],[[106.71096765904083,-6.095641639612259],[106.72404148870054,-6.08948668672473],[106.73136654219782,-6.096777938606879],[106.73989698424529,-6.101796592499787],[106.74481126064221,-6.102175358831327],[106.7468511489579,-6.0999027608420855],[106.7573287571249,-6.103879807323258],[106.76270664450266,-6.103595732574603],[106.76595192136854,-6.101039059836706],[106.77160797533479,-6.104921414734994],[106.78245647228646,-6.108614386467511],[106.79033785896075,-6.1080462369702],[106.78959608139141,-6.100660293505166],[106.79033785896075,-6.093558424788787],[106.79339769143431,-6.092422125794167],[106.79701385708486,-6.094126574286098],[106.79608663512317,-6.108898461216166],[106.80053730053925,-6.108425003301741],[106.80229902226644,-6.102364741997097],[106.8044316327783,-6.101985975665557],[106.80739874305569,-6.114674647772153],[106.80962407576372,-6.120261451162372],[106.81648551828016,-6.119882684830832],[106.8172272958495,-6.114864030937924],[106.8233469607966,-6.11723132051005],[106.82881757037053,-6.11723132051005],[106.82937390354753,-6.120166759579487],[106.83456634653295,-6.1215871333227625],[106.8437458439536,-6.121113675408337],[106.85385256333592,-6.118367619504671],[106.86340294954124,-6.112117975034257],[106.87286061355039,-6.104353265237683],[106.87749672335879,-6.101891284082672],[106.88259644414804,-6.094978798532063],[106.88222555536336,-6.106341788478269],[106.88380183269823,-6.106436480061154],[106.8841727214829,-6.096493863858224],[106.89094144180316,-6.097251396521305],[106.89066327521466,-6.10672055480981],[106.8923322747457,-6.106815246392695],[106.8926104413342,-6.09734608810419],[106.90447888244371,-6.097819546018615],[106.90716782613259,-6.104069190489028],[106.90930043664446,-6.0989558450132355],[106.92580498756239,-6.100092144007856],[106.92645404293556,-6.09810362076727],[106.95899953379057,-6.093842499537443],[106.96901353097674,-6.090717677302236],[106.96873536438822,-6.0998080692592005],[106.97040436391926,-6.104542648403453],[106.96966258634991,-6.120640217493912],[106.97068253050776,-6.139862608819577],[106.97216608564645,-6.1445024963809445],[106.97188791905795,-6.154634495749645]]],"bbox":[106.39056385629586,-6.3707206878933285,106.97216608564645,-5.202116715665505]}